[{"OBJECT_NAME":"OBJECT F","OBJECT_ID":"2023-072F","EPOCH":"2026-03-09T23:31:37.259904","MEAN_MOTION":15.29470958,"ECCENTRICITY":0.00062878,"INCLINATION":97.5173,"RA_OF_ASC_NODE":265.798,"ARG_OF_PERICENTER":19.0017,"MEAN_ANOMALY":341.1456,"EPHEMERIS_TYPE":0,"CLASSIFICATION_TYPE":"U","NORAD_CAT_ID":56748,"ELEMENT_SET_NO":999,"REV_AT_EPOCH":15460,"BSTAR":0.00043416252,"MEAN_MOTION_DOT":0.00012341,"MEAN_MOTION_DDOT":0},{"OBJECT_NAME":"STARLINK-35179","OBJECT_ID":"2025-235J","EPOCH":"2026-03-09T22:04:41.204640","MEAN_MOTION":15.30191725,"ECCENTRICITY":9.863e-5,"INCLINATION":53.1562,"RA_OF_ASC_NODE":244.4205,"ARG_OF_PERICENTER":115.5797,"MEAN_ANOMALY":244.5306,"EPHEMERIS_TYPE":0,"CLASSIFICATION_TYPE":"U","NORAD_CAT_ID":66066,"ELEMENT_SET_NO":999,"REV_AT_EPOCH":2295,"BSTAR":0.0010349319,"MEAN_MOTION_DOT":0.0003041,"MEAN_MOTION_DDOT":0}]
